[{"OBJECT_NAME":"GAOFEN-5 01A","OBJECT_ID":"2022-165A","EPOCH":"2026-03-09T23:48:04.634784","MEAN_MOTION":14.5780943,"ECCENTRICITY":6.342e-5,"INCLINATION":98.2281,"RA_OF_ASC_NODE":7.3832,"ARG_OF_PERICENTER":37.2701,"MEAN_ANOMALY":322.8541,"EPHEMERIS_TYPE":0,"CLASSIFICATION_TYPE":"U","NORAD_CAT_ID":54640,"ELEMENT_SET_NO":999,"REV_AT_EPOCH":17296,"BSTAR":0.00017296307,"MEAN_MOTION_DOT":7.46e-6,"MEAN_MOTION_DDOT":0},{"OBJECT_NAME":"SPOT 4","OBJECT_ID":"1998-017A","EPOCH":"2026-03-09T18:25:02.530560","MEAN_MOTION":14.56023803,"ECCENTRICITY":0.00129104,"INCLINATION":98.2426,"RA_OF_ASC_NODE":165.6534,"ARG_OF_PERICENTER":164.8873,"MEAN_ANOMALY":195.2713,"EPHEMERIS_TYPE":0,"CLASSIFICATION_TYPE":"U","NORAD_CAT_ID":25260,"ELEMENT_SET_NO":999,"REV_AT_EPOCH":46484,"BSTAR":0.00013504679,"MEAN_MOTION_DOT":5.49e-6,"MEAN_MOTION_DDOT":0}]
